[{"OBJECT_NAME":"STARLINK-32487","OBJECT_ID":"2024-210E","EPOCH":"2025-09-07T02:46:10.630848","MEAN_MOTION":15.27613812,"ECCENTRICITY":0.00016438,"INCLINATION":43.0033,"RA_OF_ASC_NODE":136.638,"ARG_OF_PERICENTER":272.5341,"MEAN_ANOMALY":87.5323,"EPHEMERIS_TYPE":0,"CLASSIFICATION_TYPE":"U","NORAD_CAT_ID":61963,"ELEMENT_SET_NO":999,"REV_AT_EPOCH":4683,"BSTAR":0.0014121576,"MEAN_MOTION_DOT":0.00038843,"MEAN_MOTION_DDOT":0},{"OBJECT_NAME":"STARLINK-32513","OBJECT_ID":"2024-210F","EPOCH":"2025-09-07T02:59:51.567360","MEAN_MOTION":15.27694813,"ECCENTRICITY":0.00030957,"INCLINATION":42.9993,"RA_OF_ASC_NODE":122.0047,"ARG_OF_PERICENTER":270.253,"MEAN_ANOMALY":89.7967,"EPHEMERIS_TYPE":0,"CLASSIFICATION_TYPE":"U","NORAD_CAT_ID":61964,"ELEMENT_SET_NO":999,"REV_AT_EPOCH":4700,"BSTAR":0.0014665047,"MEAN_MOTION_DOT":0.0004046,"MEAN_MOTION_DDOT":0},{"OBJECT_NAME":"STARLINK-32514","OBJECT_ID":"2024-210G","EPOCH":"2025-09-07T00:49:22.054656","MEAN_MOTION":15.27614025,"ECCENTRICITY":0.00014604,"INCLINATION":43.0018,"RA_OF_ASC_NODE":129.9727,"ARG_OF_PERICENTER":252.3717,"MEAN_ANOMALY":107.6975,"EPHEMERIS_TYPE":0,"CLASSIFICATION_TYPE":"U","NORAD_CAT_ID":61965,"ELEMENT_SET_NO":999,"REV_AT_EPOCH":4690,"BSTAR":0.002022411,"MEAN_MOTION_DOT":0.00055871,"MEAN_MOTION_DDOT":0},{"OBJECT_NAME":"STARLINK-32498","OBJECT_ID":"2024-210H","EPOCH":"2025-09-07T02:39:29.282112","MEAN_MOTION":15.27660621,"ECCENTRICITY":0.00054372,"INCLINATION":43.0026,"RA_OF_ASC_NODE":121.8995,"ARG_OF_PERICENTER":270.1152,"MEAN_ANOMALY":89.9076,"EPHEMERIS_TYPE":0,"CLASSIFICATION_TYPE":"U","NORAD_CAT_ID":61966,"ELEMENT_SET_NO":999,"REV_AT_EPOCH":4700,"BSTAR":0.0018693299,"MEAN_MOTION_DOT":0.00051683,"MEAN_MOTION_DDOT":0},{"OBJECT_NAME":"STARLINK-32518","OBJECT_ID":"2024-210J","EPOCH":"2025-09-07T01:26:20.088672","MEAN_MOTION":15.27597698,"ECCENTRICITY":6.243e-5,"INCLINATION":43.0018,"RA_OF_ASC_NODE":129.9729,"ARG_OF_PERICENTER":288.5592,"MEAN_ANOMALY":71.5192,"EPHEMERIS_TYPE":0,"CLASSIFICATION_TYPE":"U","NORAD_CAT_ID":61967,"ELEMENT_SET_NO":999,"REV_AT_EPOCH":4677,"BSTAR":0.0015350175,"MEAN_MOTION_DOT":0.00042243,"MEAN_MOTION_DDOT":0},{"OBJECT_NAME":"STARLINK-32471","OBJECT_ID":"2024-210K","EPOCH":"2025-09-07T00:34:33.833280","MEAN_MOTION":15.27601007,"ECCENTRICITY":0.00016768,"INCLINATION":43.0023,"RA_OF_ASC_NODE":129.8999,"ARG_OF_PERICENTER":287.4493,"MEAN_ANOMALY":72.6175,"EPHEMERIS_TYPE":0,"CLASSIFICATION_TYPE":"U","NORAD_CAT_ID":61968,"ELEMENT_SET_NO":999,"REV_AT_EPOCH":4691,"BSTAR":0.0012248538,"MEAN_MOTION_DOT":0.00033619,"MEAN_MOTION_DDOT":0},{"OBJECT_NAME":"STARLINK-32450","OBJECT_ID":"2024-210L","EPOCH":"2025-09-07T02:14:16.100160","MEAN_MOTION":15.27619831,"ECCENTRICITY":0.00018196,"INCLINATION":42.9996,"RA_OF_ASC_NODE":129.5556,"ARG_OF_PERICENTER":269.142,"MEAN_ANOMALY":90.9223,"EPHEMERIS_TYPE":0,"CLASSIFICATION_TYPE":"U","NORAD_CAT_ID":61969,"ELEMENT_SET_NO":999,"REV_AT_EPOCH":4678,"BSTAR":0.0020398226,"MEAN_MOTION_DOT":0.00056369,"MEAN_MOTION_DDOT":0},{"OBJECT_NAME":"STARLINK-32613","OBJECT_ID":"2024-210M","EPOCH":"2025-09-07T01:37:55.631136","MEAN_MOTION":15.27614047,"ECCENTRICITY":0.00013718,"INCLINATION":43.004,"RA_OF_ASC_NODE":137.1474,"ARG_OF_PERICENTER":253.4672,"MEAN_ANOMALY":106.6029,"EPHEMERIS_TYPE":0,"CLASSIFICATION_TYPE":"U","NORAD_CAT_ID":61970,"ELEMENT_SET_NO":999,"REV_AT_EPOCH":4683,"BSTAR":0.0012133277,"MEAN_MOTION_DOT":0.00033312,"MEAN_MOTION_DDOT":0},{"OBJECT_NAME":"STARLINK-32610","OBJECT_ID":"2024-210N","EPOCH":"2025-09-07T01:26:49.526880","MEAN_MOTION":15.27612944,"ECCENTRICITY":0.00013432,"INCLINATION":43.0017,"RA_OF_ASC_NODE":137.0895,"ARG_OF_PERICENTER":277.1368,"MEAN_ANOMALY":82.9331,"EPHEMERIS_TYPE":0,"CLASSIFICATION_TYPE":"U","NORAD_CAT_ID":61971,"ELEMENT_SET_NO":999,"REV_AT_EPOCH":4683,"BSTAR":0.0018356286,"MEAN_MOTION_DOT":0.00050649,"MEAN_MOTION_DDOT":0},{"OBJECT_NAME":"STARLINK-32612","OBJECT_ID":"2024-210P","EPOCH":"2025-09-06T23:58:13.238976","MEAN_MOTION":15.27611223,"ECCENTRICITY":6.976e-5,"INCLINATION":43.0035,"RA_OF_ASC_NODE":137.4875,"ARG_OF_PERICENTER":95.4409,"MEAN_ANOMALY":264.6523,"EPHEMERIS_TYPE":0,"CLASSIFICATION_TYPE":"U","NORAD_CAT_ID":61972,"ELEMENT_SET_NO":999,"REV_AT_EPOCH":4678,"BSTAR":0.0013012852,"MEAN_MOTION_DOT":0.00035754,"MEAN_MOTION_DDOT":0},{"OBJECT_NAME":"STARLINK-32601","OBJECT_ID":"2024-210Q","EPOCH":"2025-09-06T22:49:46.083648","MEAN_MOTION":15.27544808,"ECCENTRICITY":0.00021543,"INCLINATION":43.0007,"RA_OF_ASC_NODE":137.1299,"ARG_OF_PERICENTER":290.9793,"MEAN_ANOMALY":69.0828,"EPHEMERIS_TYPE":0,"CLASSIFICATION_TYPE":"U","NORAD_CAT_ID":61973,"ELEMENT_SET_NO":999,"REV_AT_EPOCH":4678,"BSTAR":-0.00089317254,"MEAN_MOTION_DOT":-0.00024734,"MEAN_MOTION_DDOT":0},{"OBJECT_NAME":"STARLINK-32593","OBJECT_ID":"2024-210R","EPOCH":"2025-09-07T01:47:12.174144","MEAN_MOTION":15.27581811,"ECCENTRICITY":0.00012407,"INCLINATION":43.0029,"RA_OF_ASC_NODE":137.1967,"ARG_OF_PERICENTER":286.1853,"MEAN_ANOMALY":73.8862,"EPHEMERIS_TYPE":0,"CLASSIFICATION_TYPE":"U","NORAD_CAT_ID":61974,"ELEMENT_SET_NO":999,"REV_AT_EPOCH":4679,"BSTAR":0.0017058174,"MEAN_MOTION_DOT":0.0004698,"MEAN_MOTION_DDOT":0},{"OBJECT_NAME":"STARLINK-32586","OBJECT_ID":"2024-210S","EPOCH":"2025-09-06T23:32:19.232160","MEAN_MOTION":15.27608458,"ECCENTRICITY":0.0001416,"INCLINATION":43,"RA_OF_ASC_NODE":137.3468,"ARG_OF_PERICENTER":290.048,"MEAN_ANOMALY":70.022,"EPHEMERIS_TYPE":0,"CLASSIFICATION_TYPE":"U","NORAD_CAT_ID":61975,"ELEMENT_SET_NO":999,"REV_AT_EPOCH":4678,"BSTAR":0.0022504411,"MEAN_MOTION_DOT":0.00062244,"MEAN_MOTION_DDOT":0},{"OBJECT_NAME":"STARLINK-32611","OBJECT_ID":"2024-210T","EPOCH":"2025-09-07T02:35:02.471136","MEAN_MOTION":15.27661782,"ECCENTRICITY":0.00019639,"INCLINATION":43.0051,"RA_OF_ASC_NODE":136.584,"ARG_OF_PERICENTER":295.9799,"MEAN_ANOMALY":64.085,"EPHEMERIS_TYPE":0,"CLASSIFICATION_TYPE":"U","NORAD_CAT_ID":61976,"ELEMENT_SET_NO":999,"REV_AT_EPOCH":4680,"BSTAR":0.0018684352,"MEAN_MOTION_DOT":0.00051644,"MEAN_MOTION_DDOT":0},{"OBJECT_NAME":"STARLINK-32607","OBJECT_ID":"2024-210U","EPOCH":"2025-09-07T01:21:16.512768","MEAN_MOTION":15.27616114,"ECCENTRICITY":0.0001799,"INCLINATION":43.0004,"RA_OF_ASC_NODE":137.0585,"ARG_OF_PERICENTER":283.4013,"MEAN_ANOMALY":76.6638,"EPHEMERIS_TYPE":0,"CLASSIFICATION_TYPE":"U","NORAD_CAT_ID":61977,"ELEMENT_SET_NO":999,"REV_AT_EPOCH":4683,"BSTAR":0.0019509167,"MEAN_MOTION_DOT":0.00053876,"MEAN_MOTION_DDOT":0},{"OBJECT_NAME":"STARLINK-32606","OBJECT_ID":"2024-210V","EPOCH":"2025-09-07T02:49:52.741920","MEAN_MOTION":15.2761007,"ECCENTRICITY":0.00017862,"INCLINATION":42.999,"RA_OF_ASC_NODE":136.6576,"ARG_OF_PERICENTER":283.7683,"MEAN_ANOMALY":76.297,"EPHEMERIS_TYPE":0,"CLASSIFICATION_TYPE":"U","NORAD_CAT_ID":61978,"ELEMENT_SET_NO":999,"REV_AT_EPOCH":4680,"BSTAR":0.0020057571,"MEAN_MOTION_DOT":0.00055399,"MEAN_MOTION_DDOT":0}]
