STARLINK-32487          
1 61963U 24210E   25250.11540082  .00038843  00000+0  14122-2 0  9996
2 61963  43.0033 136.6380 0001643 272.5341  87.5323 15.27613812 46830
STARLINK-32513          
1 61964U 24210F   25250.12490240  .00040460  00000+0  14665-2 0  9998
2 61964  42.9993 122.0047 0003095 270.2530  89.7967 15.27694813 47009
STARLINK-32514          
1 61965U 24210G   25250.03428304  .00055871  00000+0  20224-2 0  9991
2 61965  43.0018 129.9727 0001460 252.3717 107.6975 15.27614025 46907
STARLINK-32498          
1 61966U 24210H   25250.11075558  .00051683  00000+0  18693-2 0  9994
2 61966  43.0026 121.8995 0005437 270.1152  89.9076 15.27660621 47003
STARLINK-32518          
1 61967U 24210J   25250.05995473  .00042243  00000+0  15350-2 0  9994
2 61967  43.0018 129.9729 0000624 288.5592  71.5192 15.27597698 46775
STARLINK-32471          
1 61968U 24210K   25250.02400270  .00033619  00000+0  12249-2 0  9999
2 61968  43.0023 129.8999 0001676 287.4493  72.6175 15.27601007 46915
STARLINK-32450          
1 61969U 24210L   25250.09324190  .00056369  00000+0  20398-2 0  9994
2 61969  42.9996 129.5556 0001819 269.1420  90.9223 15.27619831 46781
STARLINK-32613          
1 61970U 24210M   25250.06800499  .00033312  00000+0  12133-2 0  9995
2 61970  43.0040 137.1474 0001371 253.4672 106.6029 15.27614047 46836
STARLINK-32610          
1 61971U 24210N   25250.06029545  .00050649  00000+0  18356-2 0  9996
2 61971  43.0017 137.0895 0001343 277.1368  82.9331 15.27612944 46837
STARLINK-32612          
1 61972U 24210P   25249.99876434  .00035754  00000+0  13013-2 0  9999
2 61972  43.0035 137.4875 0000697  95.4409 264.6523 15.27611223 46783
STARLINK-32601          
1 61973U 24210Q   25249.95122782 -.00024734  00000+0 -89317-3 0  9995
2 61973  43.0007 137.1299 0002154 290.9793  69.0828 15.27544808 46787
STARLINK-32593          
1 61974U 24210R   25250.07444646  .00046980  00000+0  17058-2 0  9994
2 61974  43.0029 137.1967 0001240 286.1853  73.8862 15.27581811 46790
STARLINK-32586          
1 61975U 24210S   25249.98077815  .00062244  00000+0  22504-2 0  9996
2 61975  43.0000 137.3468 0001416 290.0480  70.0220 15.27608458 46786
STARLINK-32611          
1 61976U 24210T   25250.10766749  .00051644  00000+0  18684-2 0  9990
2 61976  43.0051 136.5840 0001963 295.9799  64.0850 15.27661782 46806
STARLINK-32607          
1 61977U 24210U   25250.05644112  .00053876  00000+0  19509-2 0  9990
2 61977  43.0004 137.0585 0001799 283.4013  76.6638 15.27616114 46830
STARLINK-32606          
1 61978U 24210V   25250.11797155  .00055399  00000+0  20058-2 0  9997
2 61978  42.9990 136.6576 0001786 283.7683  76.2970 15.27610070 46807
